NORAD_CAT_ID,OBJECT_NAME,OBJECT_TYPE,EPOCH,MEAN_MOTION,ECCENTRICITY,INCLINATION,RA_OF_ASC_NODE,ARG_OF_PERICENTER,MEAN_ANOMALY,BSTAR,MEAN_MOTION_DOT,MEAN_MOTION_DDOT,TLE_LINE0,TLE_LINE1,TLE_LINE2,SEMIMAJOR_AXIS,PERIOD,APOGEE,PERIGEE,DECAYED
53181.0,STARLINK-4273,PAYLOAD,2023-02-21 09:18:38,15.08854695,0.0001194,53.2172,77.1998,97.6733,262.4395,0.00078275,0.00012196,0.0,0 STARLINK-4273,1 53181U 22083BB  23052.38795054  .00012196  00000-0  78275-3 0  9997,2 53181  53.2172  77.1998 0001194  97.6733 262.4395 15.08854695 34639,6917.835,95.437,540.526,538.874,0.0
53181.0,STARLINK-4273,PAYLOAD,2023-02-21 18:50:58,15.08842525,0.0001543,53.2172,75.4155,81.9804,278.1363,0.00089053,0.00013914,0.0,0 STARLINK-4273,1 53181U 22083BB  23052.78539547  .00013914  00000-0  89053-3 0  9999,2 53181  53.2172  75.4155 0001543  81.9804 278.1363 15.08842525 34692,6917.873,95.437,540.805,538.67,0.0
53181.0,STARLINK-4273,PAYLOAD,2023-02-22 01:12:30,15.08839075,0.0001539,53.2182,74.2267,86.597,273.5198,0.00041506,6.324e-05,0.0,0 STARLINK-4273,1 53181U 22083BB  23053.05035653  .00006324  00000-0  41506-3 0  9997,2 53181  53.2182  74.2267 0001539  86.5970 273.5198 15.08839075 34730,6917.883,95.438,540.813,538.684,0.0
53181.0,STARLINK-4273,PAYLOAD,2023-02-22 12:20:12,15.08846388,0.0001469,53.2182,72.1451,83.9393,276.1767,0.00021677,3.164e-05,0.0,0 STARLINK-4273,1 53181U 22083BB  23053.51403393  .00003164  00000-0  21677-3 0  9994,2 53181  53.2182  72.1451 0001469  83.9393 276.1767 15.08846388 34167,6917.861,95.437,540.742,538.71,0.0
53181.0,STARLINK-4273,PAYLOAD,2023-02-22 18:41:45,15.08845871,0.0001573,53.2184,70.9559,79.7253,280.3917,0.00020305,2.946e-05,0.0,0 STARLINK-4273,1 53181U 22083BB  23053.77899432  .00002946  00000-0  20305-3 0  9999,2 53181  53.2184  70.9559 0001573  79.7253 280.3917 15.08845871 34203,6917.862,95.437,540.816,538.639,0.0
53181.0,STARLINK-4273,PAYLOAD,2023-02-23 12:11:13,15.08547396,0.0001199,53.2191,67.6868,109.2419,250.8702,-0.0047855,-0.00075053,0.0,0 STARLINK-4273,1 53181U 22083BB  23054.50779066 -.00075053  00000-0 -47855-2 0  9990,2 53181  53.2191  67.6868 0001199 109.2419 250.8702 15.08547396 34951,6918.775,95.456,541.469,539.81,0.0
53181.0,STARLINK-4273,PAYLOAD,2023-02-23 15:22:05,15.08439448,0.000155,53.2192,67.0923,57.2856,302.8285,-0.0063678,-0.00099148,0.0,0 STARLINK-4273,1 53181U 22083BB  23054.64034034 -.00099148  00000-0 -63678-2 0  9996,2 53181  53.2192  67.0923 0001550  57.2856 302.8285 15.08439448 34970,6919.105,95.463,542.042,539.898,0.0
53181.0,STARLINK-4273,PAYLOAD,2023-02-24 13:38:33,15.0777091,0.0001461,53.219,62.9317,76.4831,283.6323,-0.011354,-0.00171626,0.0,0 STARLINK-4273,1 53181U 22083BB  23055.56844061 -.00171626  00000-0 -11354-1 0  9992,2 53181  53.2190  62.9317 0001461  76.4831 283.6323 15.07770910 35113,6921.15,95.505,544.026,542.004,0.0
53181.0,STARLINK-4273,PAYLOAD,2023-02-24 22:00:00,15.07173131,0.0001609,53.2189,61.3712,94.1176,357.0011,0.0035148,0.00053579,0.0,0 STARLINK-4273,1 53181U 22083BB  23055.91667824  .00053579  00000-0  35148-2 0  9993,2 53181  53.2189  61.3712 0001609  94.1176 357.0011 15.07173131  1302,6922.98,95.543,545.959,543.731,0.0
53181.0,STARLINK-4273,PAYLOAD,2023-02-25 00:00:00,15.0718425,0.0001662,53.2191,60.9982,94.8126,88.7041,0.0034071,0.00051932,0.0,0 STARLINK-4273,1 53181U 22083BB  23056.00001157  .00051932  00000-0  34071-2 0  9990,2 53181  53.2191  60.9982 0001662  94.8126  88.7041 15.07184250 35177,6922.946,95.542,545.962,543.66,0.0
53181.0,STARLINK-4273,PAYLOAD,2023-02-25 14:00:01,15.07385747,0.000173,53.2188,58.3876,87.398,23.0009,0.027438,0.00442411,0.0,0 STARLINK-4273,1 53181U 22083BB  23056.58334491  .00442411  00000-0  27438-1 0  9997,2 53181  53.2188  58.3876 0001730  87.3980  23.0009 15.07385747 35267,6922.329,95.53,545.392,542.996,0.0
53181.0,STARLINK-4273,PAYLOAD,2023-02-25 22:00:00,15.07668267,0.0001587,53.219,56.893,97.5414,22.8717,0.032821,0.00539696,0.0,0 STARLINK-4273,1 53181U 22083BB  23056.91667824  .00539696  00000-0  32821-1 0  9997,2 53181  53.2190  56.8930 0001587  97.5414  22.8717 15.07668267  1301,6921.464,95.512,544.428,542.231,0.0
53181.0,STARLINK-4273,PAYLOAD,2023-02-26 06:00:00,15.07990305,0.0001422,53.2189,55.4007,90.3743,40.4359,0.031828,0.00527144,0.0,0 STARLINK-4273,1 53181U 22083BB  23057.25001157  .00527144  00000-0  31828-1 0  9997,2 53181  53.2189  55.4007 0001422  90.3743  40.4359 15.07990305 35365,6920.479,95.491,543.328,541.36,0.0
53181.0,STARLINK-4273,PAYLOAD,2023-02-26 14:00:01,15.08356229,0.0001459,53.2186,53.9058,88.8141,52.763,0.027296,0.00452418,0.0,0 STARLINK-4273,1 53181U 22083BB  23057.58334491  .00452418  00000-0  27296-1 0  9998,2 53181  53.2186  53.9058 0001459  88.8141  52.7630 15.08356229  1302,6919.359,95.468,542.234,540.215,0.0
53181.0,STARLINK-4273,PAYLOAD,2023-02-26 16:33:12,15.07950807,0.0001362,53.2192,53.4266,95.0292,265.0855,0.0071102,0.00111921,0.0,0 STARLINK-4273,1 53181U 22083BB  23057.68972732  .00111921  00000-0  71102-2 0  9992,2 53181  53.2192  53.4266 0001362  95.0292 265.0855 15.07950807 35435,6920.6,95.494,543.407,541.522,0.0
53181.0,STARLINK-4273,PAYLOAD,2023-02-27 00:30:15,15.08182325,0.0003183,53.2191,51.9411,118.5476,241.5837,0.010426,0.00166578,0.0,0 STARLINK-4273,1 53181U 22083BB  23058.02100844  .00166578  00000-0  10426-1 0  9997,2 53181  53.2191  51.9411 0003183 118.5476 241.5837 15.08182325 35484,6919.891,95.479,543.959,539.554,0.0
53181.0,STARLINK-4273,PAYLOAD,2023-02-27 11:38:05,15.0838561,0.0001484,53.2192,49.8601,85.1132,275.003,0.010319,0.00165758,0.0,0 STARLINK-4273,1 53181U 22083BB  23058.48478296  .00165758  00000-0  10319-1 0  9996,2 53181  53.2192  49.8601 0001484  85.1132 275.0030 15.08385610 35559,6919.27,95.466,542.161,540.108,0.0
53181.0,STARLINK-4273,PAYLOAD,2023-02-27 16:24:18,15.08437071,0.0001666,53.2192,48.9682,87.0702,273.048,0.0096271,0.00154597,0.0,0 STARLINK-4273,1 53181U 22083BB  23058.68354586  .00154597  00000-0  96271-2 0  9994,2 53181  53.2192  48.9682 0001666  87.0702 273.0480 15.08437071 34942,6919.112,95.463,542.13,539.825,0.0
53181.0,STARLINK-4273,PAYLOAD,2023-02-28 06:00:00,15.08923912,0.0001266,53.2181,46.4259,98.0102,101.0551,-0.011001,-0.00171618,0.0,0 STARLINK-4273,1 53181U 22083BB  23059.25001157 -.00171618  00000-0 -11001-1 0  9993,2 53181  53.2181  46.4259 0001266  98.0102 101.0551 15.08923912 35668,6917.624,95.432,540.365,538.613,0.0
53181.0,STARLINK-4273,PAYLOAD,2023-02-28 14:00:01,15.08781554,9.25e-05,53.218,44.929,103.9186,106.7626,-0.00011761,-2.156e-05,0.0,0 STARLINK-4273,1 53181U 22083BB  23059.58334491 -.00002156  00000-0 -11761-3 0  9994,2 53181  53.2180  44.9290 0000925 103.9186 106.7626 15.08781554  1307,6918.059,95.441,540.564,539.284,0.0
53181.0,STARLINK-4273,PAYLOAD,2023-02-28 22:00:00,15.08772804,0.0001053,53.2181,43.4316,114.4461,107.7546,0.0030801,0.00048982,0.0,0 STARLINK-4273,1 53181U 22083BB  23059.91667824  .00048982  00000-0  30801-2 0  9990,2 53181  53.2181  43.4316 0001053 114.4461 107.7546 15.08772804  1307,6918.086,95.442,540.679,539.222,0.0
53181.0,STARLINK-4273,PAYLOAD,2023-03-02 00:00:00,15.08891922,0.0001045,53.2184,38.569,111.7173,238.1055,-0.00063681,-0.00010423,0.0,0 STARLINK-4273,1 53181U 22083BB  23061.00001157 -.00010423  00000-0 -63681-3 0  9998,2 53181  53.2184  38.5690 0001045 111.7173 238.1055 15.08891922  1308,6917.722,95.434,540.31,538.864,0.0
53181.0,STARLINK-4273,PAYLOAD,2023-03-02 06:00:00,15.0890244,9.96e-05,53.2182,37.4481,90.8134,177.752,-0.0074484,-0.00117104,0.0,0 STARLINK-4273,1 53181U 22083BB  23061.25001157 -.00117104  00000-0 -74484-2 0  9991,2 53181  53.2182  37.4481 0000996  90.8134 177.7520 15.08902440 35962,6917.69,95.434,540.244,538.866,0.0
53181.0,STARLINK-4273,PAYLOAD,2023-03-02 20:00:01,15.08820236,9.89e-05,53.2183,34.8275,95.6089,103.2708,0.0043236,0.0006916,0.0,0 STARLINK-4273,1 53181U 22083BB  23061.83334491  .00069160  00000-0  43236-2 0  9992,2 53181  53.2183  34.8275 0000989  95.6089 103.2708 15.08820236 36054,6917.941,95.439,540.49,539.122,0.0
53181.0,STARLINK-4273,PAYLOAD,2023-03-03 07:50:25,15.0886708,0.0001205,53.2195,32.613,103.7276,256.385,0.0004319,6.597e-05,0.0,0 STARLINK-4273,1 53181U 22083BB  23062.32668600  .00006597  00000-0  43190-3 0  9994,2 53181  53.2195  32.6130 0001205 103.7276 256.3850 15.08867080 36139,6917.798,95.436,540.496,538.829,0.0
53181.0,STARLINK-4273,PAYLOAD,2023-03-03 22:08:53,15.08858431,0.0001239,53.2196,29.9355,104.9556,255.1573,0.00034719,5.245e-05,0.0,0 STARLINK-4273,1 53181U 22083BB  23062.92284357  .00005245  00000-0  34719-3 0  9999,2 53181  53.2196  29.9355 0001239 104.9556 255.1573 15.08858431 35586,6917.824,95.436,540.546,538.832,0.0
53181.0,STARLINK-4273,PAYLOAD,2023-03-04 06:05:48,15.08882991,0.0001348,53.2194,28.4508,93.1797,266.9349,0.0013949,0.00022008,0.0,0 STARLINK-4273,1 53181U 22083BB  23063.25403693  .00022008  00000-0  13949-2 0  9999,2 53181  53.2194  28.4508 0001348  93.1797 266.9349 15.08882991 36271,6917.749,95.435,540.546,538.681,0.0
53181.0,STARLINK-4273,PAYLOAD,2023-03-04 07:41:11,15.08884436,0.0001357,53.2193,28.1533,88.9666,271.1482,0.0019392,0.00030747,0.0,0 STARLINK-4273,1 53181U 22083BB  23063.32027629  .00030747  00000-0  19392-2 0  9995,2 53181  53.2193  28.1533 0001357  88.9666 271.1482 15.08884436 35644,6917.745,95.435,540.548,538.671,0.0
53181.0,STARLINK-4273,PAYLOAD,2023-03-04 21:59:40,15.08849538,0.0001668,53.2197,25.4769,92.5053,267.613,0.0011669,0.00018337,0.0,0 STARLINK-4273,1 53181U 22083BB  23063.91644398  .00018337  00000-0  11669-2 0  9998,2 53181  53.2197  25.4769 0001668  92.5053 267.6130 15.08849538 35739,6917.851,95.437,540.87,538.562,0.0
53181.0,STARLINK-4273,PAYLOAD,2023-03-06 05:47:23,15.08881698,0.0001222,53.2188,19.53,97.7423,262.3708,0.0026225,0.00041744,0.0,0 STARLINK-4273,1 53181U 22083BB  23065.24124690  .00041744  00000-0  26225-2 0  9996,2 53181  53.2188  19.5300 0001222  97.7423 262.3708 15.08881698 36577,6917.753,95.435,540.463,538.773,0.0
